      2.10          N: GNSS NAV DATA                        RINEX VERSION / TYPE
fic2rin                                 10/16/2023 00:18:01 PGM / RUN BY / DATE
                                                            END OF HEADER
2  23 10 15  2  0  0.0 -.541925895959D-03  .477484718431D-11  .000000000000D+00
     .580000000000D+02 -.884375000000D+02  .411052836286D-08  .122165903658D+01
    -.510364770889D-05  .160617941292D-01  .108815729618D-04  .515374671173D+04
     .720000000000D+04  .428408384323D-07 -.333790391572D+00 -.378116965294D-06
     .967898487006D+00  .177343750000D+03 -.133193634102D+01 -.789818613401D-08
    -.326442169055D-09  .100000000000D+01  .228400000000D+04  .000000000000D+00
     .240000000000D+01  .000000000000D+00 -.176951289177D-07  .580000000000D+02
     .000000000000D+00  .400000000000D+01
1  23 10 15  2  0  0.0  .163729768246D-03 -.454747350886D-12  .000000000000D+00
     .280000000000D+02 -.575312500000D+02  .359872132976D-08 -.142918372232D+01
    -.308454036713D-05  .128863697173D-01  .121016055346D-04  .515363594055D+04
     .720000000000D+04  .324100255966D-06 -.232155407347D+00  .156462192535D-06
     .990734417322D+00  .161593750000D+03  .991319553833D+00 -.746138222509D-08
    -.241438628317D-09  .100000000000D+01  .228400000000D+04  .000000000000D+00
     .240000000000D+01  .630000000000D+02  .512227416039D-08  .280000000000D+02
     .000000000000D+00  .400000000000D+01
3  23 10 15  2  0  0.0 -.783605501056D-04  .229647412198D-10  .000000000000D+00
     .440000000000D+02  .592812500000D+02  .404481133977D-08 -.263069927811D+01
     .321678817272D-05  .509700004477D-02  .814907252789D-05  .515357979774D+04
     .720000000000D+04 -.316649675369D-07  .796641022382D+00 -.931322574615D-08
     .980918526668D+00  .233593750000D+03  .111799509177D+01 -.772603610613D-08
     .524307553800D-09  .100000000000D+01  .228400000000D+04  .000000000000D+00
     .240000000000D+01  .000000000000D+00  .186264514923D-08  .440000000000D+02
     .000000000000D+00  .400000000000D+01
5  23 10 15  2  0  0.0 -.146534759551D-03 -.147792889038D-11  .000000000000D+00
     .940000000000D+02  .488750000000D+02  .439232581514D-08  .104805065529D+01
     .255927443504D-05  .596373027656D-02  .901333987713D-05  .515373966217D+04
     .720000000000D+04 -.298023223877D-07  .748240244604D+00 -.577419996262D-07
     .967966208409D+00  .214687500000D+03  .123708543019D+01 -.803354891527D-08
     .482877256633D-09  .100000000000D+01  .228400000000D+04  .000000000000D+00
     .240000000000D+01  .000000000000D+00 -.111758708954D-07  .940000000000D+02
     .000000000000D+00  .400000000000D+01
4  23 10 15  2  0  0.0  .184672884643D-03  .108002495836D-10  .000000000000D+00
     .280000000000D+02 -.383437500000D+02  .474805491840D-08  .410439277746D+00
    -.197067856789D-05  .261444866192D-02  .470504164696D-05  .515361041451D+04
     .720000000000D+04  .353902578354D-07  .187728823691D+01  .353902578354D-07
     .963182984163D+00  .289125000000D+03 -.305697237800D+01 -.830713173967D-08
    -.273939982128D-09  .100000000000D+01  .228400000000D+04  .000000000000D+00
     .240000000000D+01  .000000000000D+00 -.419095158577D-08  .796000000000D+03
     .000000000000D+00  .400000000000D+01
25 23 10 15 22  0  0.0  .472881365567D-03  .181898940355D-11  .000000000000D+00
     .350000000000D+02  .110031250000D+03  .480591447134D-08  .121994864689D+01
     .576488673687D-05  .112793669105D-01  .758469104767D-05  .515367521667D+04
     .792000000000D+05 -.245869159698D-06 -.236156535985D+01  .113621354103D-06
     .952120735582D+00  .229750000000D+03  .105304162560D+01 -.843535136624D-08
     .244653047924D-09  .100000000000D+01  .228400000000D+04  .000000000000D+00
     .240000000000D+01  .000000000000D+00  .558793544769D-08  .350000000000D+02
     .720000000000D+05  .400000000000D+01
13 23 10 15 22  0  0.0  .584402121603D-03  .432009983342D-11  .000000000000D+00
     .600000000000D+02 -.315000000000D+02  .474269755239D-08 -.171907542555D+01
    -.165216624737D-05  .762356631458D-02  .463053584099D-05  .515365762711D+04
     .792000000000D+05  .141561031342D-06  .198141778466D+01 -.316649675369D-07
     .970062077014D+00  .291125000000D+03  .948761626976D+00 -.812498129523D-08
    -.150006248362D-09  .100000000000D+01  .228400000000D+04  .000000000000D+00
     .240000000000D+01  .000000000000D+00 -.116415321827D-07  .600000000000D+02
     .720000000000D+05  .400000000000D+01
18 23 10 15 22  0  0.0 -.449874904007D-03 -.117097442853D-10  .000000000000D+00
     .156000000000D+03 -.890937500000D+02  .386373236853D-08  .288306928455D+01
    -.469200313091D-05  .379494519439D-02  .109914690256D-04  .515365897751D+04
     .792000000000D+05 -.502914190292D-07 -.233768239420D+00  .558793544769D-08
     .974616707144D+00  .175375000000D+03 -.307519595144D+01 -.767531970787D-08
    -.199294015681D-09  .100000000000D+01  .228400000000D+04  .000000000000D+00
     .240000000000D+01  .000000000000D+00 -.838190317154D-08  .668000000000D+03
     .720000000000D+05  .400000000000D+01
14 23 10 15 22  0  0.0  .215037260205D-03  .110276232590D-10  .000000000000D+00
     .900000000000D+02  .122781250000D+03  .493841999073D-08  .133301637833D+01
     .644661486149D-05  .360865390394D-02  .738725066185D-05  .515368531799D+04
     .792000000000D+05  .102445483208D-06 -.231849530780D+01  .167638063431D-07
     .947630681582D+00  .228312500000D+03 -.294241061368D+01 -.844249452093D-08
     .260367988229D-09  .100000000000D+01  .228400000000D+04  .000000000000D+00
     .240000000000D+01  .000000000000D+00 -.791624188423D-08  .346000000000D+03
     .720000000000D+05  .400000000000D+01
28 23 10 15 22  0  0.0 -.262265093625D-04 -.693489710102D-11  .000000000000D+00
     .210000000000D+03 -.121875000000D+01  .446304304651D-08  .715924827497D+00
     .149011611938D-07  .729732913896D-03  .115167349577D-04  .515376850128D+04
     .792000000000D+05 -.745058059692D-08  .285519167040D+01  .596046447754D-07
     .961895600161D+00  .158593750000D+03  .155432644542D+01 -.787568519676D-08
    -.362515100209D-09  .100000000000D+01  .228400000000D+04  .000000000000D+00
     .240000000000D+01  .000000000000D+00 -.977888703346D-08  .722000000000D+03
     .720000000000D+05  .400000000000D+01
23 23 10 15 22  0  0.0  .832378864288D-04  .579802872380D-11  .000000000000D+00
     .204000000000D+03  .415312500000D+02  .409552773803D-08  .188532844199D+01
     .212341547012D-05  .376592739485D-02  .945478677750D-05  .515368590927D+04
     .792000000000D+05 -.689178705215D-07  .765577806097D+00  .372529029846D-07
     .975833762822D+00  .203312500000D+03 -.307118565850D+01 -.779996775711D-08
     .556808907612D-09  .100000000000D+01  .228400000000D+04  .000000000000D+00
     .240000000000D+01  .000000000000D+00 -.838190317154D-08  .972000000000D+03
     .720000000000D+05  .400000000000D+01
12 23 10 15 21 59 44.0 -.436259433627D-03 -.420641299570D-11  .000000000000D+00
     .900000000000D+01  .110750000000D+03  .451447376024D-08  .141835890096D+01
     .555068254471D-05  .862726429477D-02  .683218240738D-05  .515378019333D+04
     .791840000000D+05 -.204890966415D-06 -.227758549129D+01 -.163912773132D-06
     .964254251277D+00  .249093750000D+03  .139236377125D+01 -.818855537191D-08
     .310012913282D-09  .100000000000D+01  .228400000000D+04  .000000000000D+00
     .240000000000D+01  .000000000000D+00 -.125728547573D-07  .900000000000D+01
     .777000000000D+05  .400000000000D+01
31 23 10 15 21 59 44.0 -.224690884352D-03 -.454747350886D-12  .000000000000D+00
     .500000000000D+01  .734375000000D+01  .459912014324D-08  .122643480433D+01
     .592321157455D-06  .105432680575D-01  .118874013424D-04  .515364252281D+04
     .791840000000D+05 -.298023223877D-07  .291142933544D+01  .154599547386D-06
     .954834502747D+00  .149343750000D+03  .603154413677D+00 -.804640659370D-08
    -.491449042254D-09  .100000000000D+01  .228400000000D+04  .000000000000D+00
     .240000000000D+01  .000000000000D+00 -.130385160446D-07  .500000000000D+01
     .778800000000D+05  .400000000000D+01
10 23 10 15 21 59 44.0 -.574751757085D-04 -.147792889038D-11  .000000000000D+00
     .210000000000D+02  .424375000000D+02  .403695386962D-08  .680145120900D+00
     .226870179176D-05  .894046598114D-02  .921078026295D-05  .515368548584D+04
     .791840000000D+05 -.169500708580D-06  .793473392197D+00  .173225998878D-06
     .980670553276D+00  .213906250000D+03 -.243947879534D+01 -.783961226560D-08
     .552880172536D-09  .100000000000D+01  .228400000000D+04  .000000000000D+00
     .240000000000D+01  .000000000000D+00  .232830643654D-08  .210000000000D+02
     .781500000000D+05  .400000000000D+01
12 23 10 15 23 59 44.0 -.436289701611D-03 -.420641299570D-11  .000000000000D+00
     .110000000000D+02  .115593750000D+03  .447625788268D-08  .246855402445D+01
     .584684312344D-05  .862703425810D-02  .693090260029D-05  .515377917290D+04
     .863840000000D+05  .223517417908D-07 -.227764347112D+01 -.154599547386D-06
     .964257351201D+00  .242625000000D+03  .139228507358D+01 -.799461872225D-08
     .307155651409D-09  .100000000000D+01  .228400000000D+04  .000000000000D+00
     .240000000000D+01  .000000000000D+00 -.125728547573D-07  .110000000000D+02
     .792000000000D+05  .400000000000D+01
10 23 10 15 23 59 44.0 -.574863515794D-04 -.147792889038D-11  .000000000000D+00
     .350000000000D+02  .340625000000D+02  .397695137027D-08  .173013534809D+01
     .178813934326D-05  .894099322613D-02  .965408980846D-05  .515368868446D+04
     .863840000000D+05 -.223517417908D-06  .793417059611D+00  .111758708954D-07
     .980674272014D+00  .205406250000D+03 -.243929992435D+01 -.780425364992D-08
     .518593030053D-09  .100000000000D+01  .228400000000D+04  .000000000000D+00
     .240000000000D+01  .000000000000D+00  .232830643654D-08  .350000000000D+02
     .792000000000D+05  .400000000000D+01
